COSMOS 1892             
1 18421U 87088A   21003.89489682  .00000480  00000-0  22302-4 0  9992
2 18421  82.5002  75.1468 0016568  90.5508 269.7624 15.17409758814948
SL-14 R/B               
1 18749U 88001B   21004.20811471  .00000086  00000-0  76303-5 0  9995
2 18749  82.5136 169.5095 0018720   1.4676 171.4056 14.83241097782722
COSMOS 1933             
1 18958U 88020A   21004.14965466  .00000397  00000-0  26771-4 0  9993
2 18958  82.5307 291.7705 0011291 181.5132 178.6062 15.03836101786418
SL-3 R/B                
1 19046U 88032B   21003.95159964 -.00000523  00000-0 -34162-4 0  9997
2 19046  97.3922  22.0181 0035253 242.5132 117.2508 15.02827130767075
SL-16 R/B               
1 19120U 88039B   21003.85091267 -.00000173  00000-0 -59205-4 0  9993
2 19120  71.0155 105.0761 0022125 353.7602   6.3244 14.19217987690083
COSMOS 1953             
1 19210U 88050A   21003.83372653  .00000073  00000-0  29278-5 0  9990
2 19210  82.5149 215.3018 0014190 147.2088 213.0023 15.06127501751821
SL-8 R/B                
1 19257U 88053B   21003.94060035  .00000080  00000-0  35316-4 0  9991
2 19257  74.0491 352.3368 0021819 280.9819 144.6419 14.37498617704818
COSMOS 1975             
1 19573U 88093A   21003.88817614  .00000201  00000-0  12116-4 0  9990
2 19573  82.5195 170.0246 0013941 194.3324 165.7510 15.05035369733657
SL-14 R/B               
1 19574U 88093B   21003.96785153  .00000080  00000-0  67989-5 0  9996
2 19574  82.5314  12.5440 0022196 157.0213 222.6758 14.83352157720590
SL-16 R/B               
1 19650U 88102B   21003.85618841  .00000094  00000-0  71956-4 0  9992
2 19650  70.9979 168.5028 0014084   0.3678 359.7452 14.15795238659241
INTERCOSMOS 24          
1 20261U 89080A   21003.81633830  .00000104  00000-0  27889-4 0  9997
2 20261  82.6037 250.6104 1202853 345.5370  11.3914 12.56163742429152
SL-14 R/B               
1 20262U 89080C   21004.16870556  .00000045  00000-0  76125-5 0  9997
2 20262  82.5943 305.3456 1237052 179.4275 180.8607 12.48953512423612
DELTA 2 R/B(1)          
1 20303U 89085B   21003.89791662  .00003357  00000-0  10646-3 0  9990
2 20303  35.6370 190.5640 0092020 160.2456 200.1870 15.28347175699270
DELTA 1 R/B             
1 20323U 89089B   21004.18870535  .00000043  00000-0  20369-4 0  9999
2 20323  97.1152 124.2385 0070652 320.4417  39.1635 14.48377546642450
ARIANE 40 R/B           
1 20443U 90005H   21003.68395476  .00000006  00000-0  16546-4 0  9993
2 20443  98.5522  70.9201 0011521 105.8925 254.3533 14.38111674620891
DELTA 2 R/B(1)          
1 20453U 90008B   21003.81550370  .00002516  00000-0  14028-3 0  9998
2 20453  35.6235 154.5055 0278516 178.1652 182.0140 14.86102880641010
COSMOS 2058             
1 20465U 90010A   21004.16799886  .00000289  00000-0  22082-4 0  9995
2 20465  82.4894  80.2048 0014055 241.5260 118.4548 14.98117177679482
SL-14 R/B               
1 20466U 90010B   21003.88451982  .00000075  00000-0  65693-5 0  9995
2 20466  82.5027 239.1920 0021544  42.2913 317.9957 14.81406228648406
SL-14 R/B               
1 20511U 90018B   21003.92627416  .00000071  00000-0  62244-5 0  9991
2 20511  82.5221 186.4368 0017526 175.5613 301.4450 14.80061647642765
HST                     
1 20580U 90037B   21003.91090941  .00000555  00000-0  22722-4 0  9997
2 20580  28.4706  73.7120 0002942  89.5057  73.9123 15.09527511486239
SL-16 R/B               
1 20625U 90046B   21003.89604945 -.00000222  00000-0 -90692-4 0  9993
2 20625  70.9991 307.4736 0016460 293.3913  66.5477 14.14659073580962
COSMOS 2084             
1 20663U 90055A   21004.03437950 -.00000007  00000-0  17475-4 0  9990
2 20663  62.7929 218.4449 0044969 336.9206  22.9866 14.92173068653296
SL-6 R/B(2)             
1 20666U 90055D   21004.05337967 -.00000018  00000-0  16603-4 0  9996
2 20666  62.7851 134.3154 0075342  15.1733 345.1595 14.92417691654701
SL-8 R/B                
1 20775U 90078B   21003.89000115  .00001761  00000-0  85742-4 0  9990
2 20775  82.9264  61.2651 0568958 293.4868  60.7514 14.35148254534480
SL-8 R/B                
1 21088U 91006B   21004.15324571 -.00000006  00000-0 -21301-4 0  9999
2 21088  82.9429 136.0175 0021362 290.0285 244.3590 13.77146716504108
OKEAN-3                 
1 21397U 91039A   21004.17999673  .00000312  00000-0  27434-4 0  9992
2 21397  82.5218 345.8826 0016795 213.6727 146.3428 14.93019981603273
COSMOS 2151             
1 21422U 91042A   21003.76255874  .00000244  00000-0  21481-4 0  9997
2 21422  82.5010  92.2409 0012639 285.1960  74.7862 14.92198172580750
SL-14 R/B               
1 21423U 91042B   21004.01851589  .00000075  00000-0  69604-5 0  9994
2 21423  82.4929 189.4515 0016725 326.4234  33.5918 14.79811515594364
ERS-1                   
1 21574U 91050A   21003.91343715  .00000039  00000-0  27635-4 0  9992
2 21574  98.6260 323.6054 0033912  52.1163 308.3083 14.37775759543924
ARIANE 40 R/B           
1 21610U 91050F   21003.97299079  .00000014  00000-0  17877-4 0  9992
2 21610  98.4445  76.9858 0003628  36.4298 137.3332 14.40929491546572
INTERCOSMOS 25          
1 21819U 91086A   21003.73488922 -.00000870  00000-0 -18034-3 0  9990
2 21819  82.5875   6.3521 1515765 205.1640 146.7498 12.05189960268414
SL-8 R/B                
1 21876U 92008B   21003.89231939 -.00000001  00000-0 -16645-4 0  9992
2 21876  82.9263 233.4318 0035225  16.2436 354.2344 13.75669809449432
SL-8 R/B                
1 21938U 92020B   21003.83532826  .00000069  00000-0  55563-4 0  9992
2 21938  82.9308 117.8122 0029587 172.0865 300.4742 13.75292759441219
COSMOS 2219             
1 22219U 92076A   21003.96371707  .00000234  00000-0  14837-3 0  9991
2 22219  71.0610   8.8451 0019295 214.2780 145.7098 14.13656635451159
SL-16 R/B               
1 22220U 92076B   21004.00792836 -.00000133  00000-0 -42906-4 0  9998
2 22220  70.9979 209.4020 0010615  98.4870  53.7355 14.16462914454400
COSMOS 2221             
1 22236U 92080A   21003.82342779  .00000232  00000-0  22475-4 0  9993
2 22236  82.5085 274.3069 0017298  21.5617 338.6325 14.87996047499079
SL-16 R/B               
1 22285U 92093B   21003.70727181  .00000103  00000-0  77577-4 0  9992
2 22285  71.0210  12.4010 0006153 296.0183  64.0305 14.15049467445657
COSMOS 2228             
1 22286U 92094A   21003.88072148  .00000208  00000-0  19658-4 0  9991
2 22286  82.5195 230.7332 0022138 132.6069 227.7021 14.88215096494254
SL-16 R/B               
1 22566U 93016B   21003.88657102 -.00000317  00000-0 -13916-3 0  9999
2 22566  71.0057 225.0209 0012018 311.7134  48.2959 14.14967254434680
COSMOS 2242             
1 22626U 93024A   21003.94531370  .00000223  00000-0  21421-4 0  9995
2 22626  82.5220 258.8778 0019952 132.0180 228.2740 14.88066850498670
SL-16 R/B               
1 22803U 93059B   21003.83943539  .00000193  00000-0  11991-3 0  9998
2 22803  70.9902  36.9695 0018613 217.0472 142.9368 14.16829075411680
ARIANE 40 R/B           
1 22830U 93061H   21003.91236607 -.00000026  00000-0  71952-5 0  9992
2 22830  98.7392  60.6900 0011979  94.9286 265.3264 14.31463852423500
COSMOS 2278             
1 23087U 94023A   21003.90089734  .00000048  00000-0  50153-4 0  9994
2 23087  71.0536 168.6807 0007993  21.3388 338.8066 14.13825126377524
SL-16 R/B               
1 23088U 94023B   21003.92995813 -.00000168  00000-0 -62486-4 0  9998
2 23088  71.0014  80.3356 0005896 282.9866  77.0598 14.14686033378662
SL-16 R/B               
1 23343U 94074B   21004.12662897  .00000014  00000-0  93159-5 0  9994
2 23343  97.9724  61.0436 0006032 215.1496 197.2881 14.76856064408245
SL-16 R/B               
1 23405U 94077B   21003.72569916 -.00000293  00000-0 -12612-3 0  9993
2 23405  70.9834   9.3676 0002761 212.5465 147.5488 14.15227742348680
ERS-2                   
1 23560U 95021A   21004.09915645  .00001083  00000-0  49047-4 0  9999
2 23560  98.5530 191.3343 0003024 189.5089 170.6088 15.23577441372697
ARIANE 40+ R/B          
1 23561U 95021B   21003.87020727  .00000035  00000-0  26636-4 0  9998
2 23561  98.6996  51.8720 0007286  28.1747 145.0686 14.38002473347377
SL-16 R/B               
1 23705U 95058B   21004.19313179  .00000134  00000-0  93663-4 0  9994
2 23705  71.0197 187.7723 0010825 127.3978 232.8132 14.15141388300675
SL-16 R/B               
1 24298U 96051B   21003.92846917 -.00000131  00000-0 -44485-4 0  9994
2 24298  70.8369 207.9001 0013416  51.3707 308.8611 14.12480718254663
ORBVIEW 2 (SEASTAR)     
1 24883U 97037A   21003.92412924  .00000041  00000-0  30953-4 0  9999
2 24883  98.6273 122.4064 0001704 208.3871 151.7220 14.33589654237437
SL-16 R/B               
1 25400U 98043G   21004.11385752  .00000002  00000-0  19421-4 0  9997
2 25400  98.6273 302.4976 0010968 108.2126 252.0249 14.25467767169833
SL-16 R/B               
1 25407U 98045B   21003.98968226  .00000252  00000-0  15211-3 0  9992
2 25407  71.0093 196.1491 0006760  11.3519 348.7755 14.15833280159739
ISS (ZARYA)             
1 25544U 98067A   21004.22552825  .00001228  00000-0  30163-4 0  9998
2 25544  51.6464  73.7292 0000776 173.5001 242.6005 15.49255294263180
SL-8 R/B                
1 25723U 99022C   21004.08251511  .00058394  00000-0  21836-3 0  9993
2 25723  48.4095 334.5149 0001228 198.2773 161.8142 15.87247743209686
CZ-4B R/B               
1 25732U 99025C   21004.12462787 -.00000032  00000-0  65215-5 0  9998
2 25732  98.9241  40.0343 0037284   0.1533  66.3022 14.17686593120398
OKEAN-O                 
1 25860U 99039A   21003.94590863  .00000048  00000-0  14483-4 0  9997
2 25860  98.2000  32.2843 0000937  69.5661 290.5648 14.76703471155102
SL-16 R/B               
1 25861U 99039B   21004.04992162  .00000033  00000-0  12052-4 0  9992
2 25861  98.2091  16.1838 0014596 230.7347 193.6073 14.78613396157405
DELTA 2 R/B             
1 25876U 99041E   21004.03821783 -.00000091  00000-0  24245-4 0  9992
2 25876  51.7649 238.4522 0530933 209.0791 147.9584 14.04494345 96831
